{
  "type": "FeatureCollection",
  "features": [
    {
      "type": "Feature",
      "geometry": {
        "type": "Point",
        "coordinates": [
          -98.57059478803424,
          33.90566089919181
        ]
      },
      "properties": {
        "index": 1
      }
    },
    {
      "type": "Feature",
      "geometry": {
        "type": "Point",
        "coordinates": [
          -98.51222991987017,
          33.935574682331065
        ]
      },
      "properties": {
        "index": 2
      }
    },
    {
      "type": "Feature",
      "geometry": {
        "type": "Point",
        "coordinates": [
          -98.50364685102251,
          33.90851028339889
        ]
      },
      "properties": {
        "index": 3
      }
    },
    {
      "type": "Feature",
      "geometry": {
        "type": "Point",
        "coordinates": [
          -98.48716735883501,
          33.93130192780643
        ]
      },
      "properties": {
        "index": 4
      }
    },
    {
      "type": "Feature",
      "geometry": {
        "type": "Point",
        "coordinates": [
          -98.47103118940142,
          33.907085603201104
        ]
      },
      "properties": {
        "index": 5
      }
    },
    {
      "type": "Feature",
      "geometry": {
        "type": "Point",
        "coordinates": [
          -98.51257324262407,
          33.8879925914103
        ]
      },
      "properties": {
        "index": 6
      }
    },
    {
      "type": "Feature",
      "geometry": {
        "type": "Point",
        "coordinates": [
          -98.55480194135454,
          33.89055757288738
        ]
      },
      "properties": {
        "index": 7
      }
    },
    {
      "type": "Feature",
      "geometry": {
        "type": "Point",
        "coordinates": [
          -98.57025146528034,
          33.90252646655729
        ]
      },
      "properties": {
        "index": 8
      }
    }
  ]
}